{"type": "FeatureCollection", "features": [ {"type": "Feature", "properties": {"norad_id": 38552, "name": "METEOSAT-10 (MSG-3)", "group": "weather", "lat": -3.9932707014024884, "lon": -49.11999546906294, "alt_km": 35782.40435983758, "timestamp": "2025-12-21T14:40:47.553010+00:00", "meta": {"OBJECT_NAME": "METEOSAT-10 (MSG-3)", "OBJECT_ID": "2012-035B", "EPOCH": "2025-12-21T01:12:55.511136", "MEAN_MOTION": 1.00276728, "ECCENTRICITY": 7.039e-05, "INCLINATION": 4.247, "RA_OF_ASC_NODE": 61.7008, "ARG_OF_PERICENTER": 268.7079, "MEAN_ANOMALY": 137.9997, "EPHEMERIS_TYPE": 0, "CLASSIFICATION_TYPE": "U", "NORAD_CAT_ID": 38552, "ELEMENT_SET_NO": 999, "REV_AT_EPOCH": 4907, "BSTAR": 0, "MEAN_MOTION_DOT": 1.6e-07, "MEAN_MOTION_DDOT": 0}, "tle": {"line1": "1 38552U 12035B   25355.05064249  .00000016  00000+0  00000+0 0  9999", "line2": "2 38552   4.2470  61.7008 0000703 268.7079 137.9997  1.00276728 49071"}}, "geometry": {"type": "Point", "coordinates": [-49.11999546906294, -3.9932707014024884]}}, {"type": "Feature", "properties": {"norad_id": 38771, "name": "METOP-B", "group": "weather", "lat": 76.42748580920576, "lon": -95.33345831876954, "alt_km": 811.2575961899256, "timestamp": "2025-12-21T14:40:47.553021+00:00", "meta": {"OBJECT_NAME": "METOP-B", "OBJECT_ID": "2012-049A", "EPOCH": "2025-12-21T05:45:43.234272", "MEAN_MOTION": 14.21411389, "ECCENTRICITY": 0.00031855, "INCLINATION": 98.6786, "RA_OF_ASC_NODE": 45.0543, "ARG_OF_PERICENTER": 126.1704, "MEAN_ANOMALY": 233.9768, "EPHEMERIS_TYPE": 0, "CLASSIFICATION_TYPE": "U", "NORAD_CAT_ID": 38771, "ELEMENT_SET_NO": 999, "REV_AT_EPOCH": 68798, "BSTAR": 7.0449335e-05, "MEAN_MOTION_DOT": 1.1e-06, "MEAN_MOTION_DDOT": 0}, "tle": {"line1": "1 38771U 12049A   25355.24008373  .00000110  00000+0  70449-4 0  9998", "line2": "2 38771  98.6786  45.0543 0003185 126.1704 233.9768 14.21411389687981"}}, "geometry": {"type": "Point", "coordinates": [-95.33345831876954, 76.42748580920576]}}, {"type": "Feature", "properties": {"norad_id": 39216, "name": "INSAT-3D", "group": "weather", "lat": -0.09661056595976313, "lon": 80.10630595448853, "alt_km": 35791.80222380065, "timestamp": "2025-12-21T14:40:47.553033+00:00", "meta": {"OBJECT_NAME": "INSAT-3D", "OBJECT_ID": "2013-038B", "EPOCH": "2025-12-21T00:30:38.784672", "MEAN_MOTION": 1.00276813, "ECCENTRICITY": 0.00018037, "INCLINATION": 1.465, "RA_OF_ASC_NODE": 84.9054, "ARG_OF_PERICENTER": 152.2631, "MEAN_ANOMALY": 349.8222, "EPHEMERIS_TYPE": 0, "CLASSIFICATION_TYPE": "U", "NORAD_CAT_ID": 39216, "ELEMENT_SET_NO": 999, "REV_AT_EPOCH": 4529, "BSTAR": 0, "MEAN_MOTION_DOT": -3.17e-06, "MEAN_MOTION_DDOT": 0}, "tle": {"line1": "1 39216U 13038B   25355.02128223 -.00000317  00000+0  00000+0 0  9996", "line2": "2 39216   1.4650  84.9054 0001803 152.2631 349.8222  1.00276813 45299"}}, "geometry": {"type": "Point", "coordinates": [80.10630595448853, -0.09661056595976313]}}, {"type": "Feature", "properties": {"norad_id": 39260, "name": "FENGYUN 3C", "group": "weather", "lat": 14.619617107564826, "lon": 155.08764591496967, "alt_km": 830.1599755977913, "timestamp": "2025-12-21T14:40:47.553044+00:00", "meta": {"OBJECT_NAME": "FENGYUN 3C", "OBJECT_ID": "2013-052A", "EPOCH": "2025-12-21T05:25:16.953024", "MEAN_MOTION": 14.15698708, "ECCENTRICITY": 0.00147552, "INCLINATION": 98.4772, "RA_OF_ASC_NODE": 332.4912, "ARG_OF_PERICENTER": 171.3558, "MEAN_ANOMALY": 188.7874, "EPHEMERIS_TYPE": 0, "CLASSIFICATION_TYPE": "U", "NORAD_CAT_ID": 39260, "ELEMENT_SET_NO": 999, "REV_AT_EPOCH": 63338, "BSTAR": 5.03773e-05, "MEAN_MOTION_DOT": 5.8e-07, "MEAN_MOTION_DDOT": 0}, "tle": {"line1": "1 39260U 13052A   25355.22589066  .00000058  00000+0  50377-4 0  9997", "line2": "2 39260  98.4772 332.4912 0014755 171.3558 188.7874 14.15698708633380"}}, "geometry": {"type": "Point", "coordinates": [155.08764591496967, 14.619617107564826]}}, {"type": "Feature", "properties": {"norad_id": 40069, "name": "METEOR-M 2", "group": "weather", "lat": -31.693078220652684, "lon": -21.851917385015287, "alt_km": 829.9048708065557, "timestamp": "2025-12-21T14:40:47.553055+00:00", "meta": {"OBJECT_NAME": "METEOR-M 2", "OBJECT_ID": "2014-037A", "EPOCH": "2025-12-21T06:23:00.354048", "MEAN_MOTION": 14.21390936, "ECCENTRICITY": 0.00054087, "INCLINATION": 98.4904, "RA_OF_ASC_NODE": 332.5237, "ARG_OF_PERICENTER": 182.651, "MEAN_ANOMALY": 177.464, "EPHEMERIS_TYPE": 0, "CLASSIFICATION_TYPE": "U", "NORAD_CAT_ID": 40069, "ELEMENT_SET_NO": 999, "REV_AT_EPOCH": 59404, "BSTAR": 0.00022259751, "MEAN_MOTION_DOT": 4.44e-06, "MEAN_MOTION_DDOT": 0}, "tle": {"line1": "1 40069U 14037A   25355.26597632  .00000444  00000+0  22260-3 0  9990", "line2": "2 40069  98.4904 332.5237 0005408 182.6510 177.4640 14.21390936594049"}}, "geometry": {"type": "Point", "coordinates": [-21.851917385015287, -31.693078220652684]}}, {"type": "Feature", "properties": {"norad_id": 40267, "name": "HIMAWARI-8", "group": "weather", "lat": 0.013297525404033448, "lon": 91.28744557542576, "alt_km": 35789.78071153469, "timestamp": "2025-12-21T14:40:47.553067+00:00", "meta": {"OBJECT_NAME": "HIMAWARI-8", "OBJECT_ID": "2014-060A", "EPOCH": "2025-12-21T05:18:22.225248", "MEAN_MOTION": 1.00270732, "ECCENTRICITY": 8.781e-05, "INCLINATION": 0.039, "RA_OF_ASC_NODE": 135.3525, "ARG_OF_PERICENTER": 161.3274, "MEAN_ANOMALY": 13.6225, "EPHEMERIS_TYPE": 0, "CLASSIFICATION_TYPE": "U", "NORAD_CAT_ID": 40267, "ELEMENT_SET_NO": 999, "REV_AT_EPOCH": 4097, "BSTAR": 0, "MEAN_MOTION_DOT": -2.53e-06, "MEAN_MOTION_DDOT": 0}, "tle": {"line1": "1 40267U 14060A   25355.22109057 -.00000253  00000+0  00000+0 0  9995", "line2": "2 40267   0.0390 135.3525 0000878 161.3274  13.6225  1.00270732 40975"}}, "geometry": {"type": "Point", "coordinates": [91.28744557542576, 0.013297525404033448]}}, {"type": "Feature", "properties": {"norad_id": 40367, "name": "FENGYUN 2G", "group": "weather", "lat": -2.184683238550802, "lon": 49.97265740851934, "alt_km": 35796.854121996155, "timestamp": "2025-12-21T14:40:47.553080+00:00", "meta": {"OBJECT_NAME": "FENGYUN 2G", "OBJECT_ID": "2014-090A", "EPOCH": "2025-12-21T01:41:07.810656", "MEAN_MOTION": 1.00261103, "ECCENTRICITY": 0.00026608, "INCLINATION": 5.188, "RA_OF_ASC_NODE": 75.0029, "ARG_OF_PERICENTER": 203.8012, "MEAN_ANOMALY": 295.6309, "EPHEMERIS_TYPE": 0, "CLASSIFICATION_TYPE": "U", "NORAD_CAT_ID": 40367, "ELEMENT_SET_NO": 999, "REV_AT_EPOCH": 4021, "BSTAR": 0, "MEAN_MOTION_DOT": -2.79e-06, "MEAN_MOTION_DDOT": 0}, "tle": {"line1": "1 40367U 14090A   25355.07022929 -.00000279  00000+0  00000+0 0  9992", "line2": "2 40367   5.1880  75.0029 0002660 203.8012 295.6309  1.00261103 40212"}}, "geometry": {"type": "Point", "coordinates": [49.97265740851934, -2.184683238550802]}}, {"type": "Feature", "properties": {"norad_id": 40732, "name": "METEOSAT-11 (MSG-4)", "group": "weather", "lat": -2.5737553404060503, "lon": -40.19808579408627, "alt_km": 35788.08327086217, "timestamp": "2025-12-21T14:40:47.553092+00:00", "meta": {"OBJECT_NAME": "METEOSAT-11 (MSG-4)", "OBJECT_ID": "2015-034A", "EPOCH": "2025-12-21T02:58:07.934880", "MEAN_MOTION": 1.00270116, "ECCENTRICITY": 8.178e-05, "INCLINATION": 2.7571, "RA_OF_ASC_NODE": 71.9801, "ARG_OF_PERICENTER": 136.5122, "MEAN_ANOMALY": 295.1851, "EPHEMERIS_TYPE": 0, "CLASSIFICATION_TYPE": "U", "NORAD_CAT_ID": 40732, "ELEMENT_SET_NO": 999, "REV_AT_EPOCH": 543, "BSTAR": 0, "MEAN_MOTION_DOT": 8.2e-07, "MEAN_MOTION_DDOT": 0}, "tle": {"line1": "1 40732U 15034A   25355.12370295  .00000082  00000+0  00000+0 0  9996", "line2": "2 40732   2.7571  71.9801 0000817 136.5122 295.1851  1.00270116  5433"}}, "geometry": {"type": "Point", "coordinates": [-40.19808579408627, -2.5737553404060503]}}, {"type": "Feature", "properties": {"norad_id": 41105, "name": "ELEKTRO-L 2", "group": "weather", "lat": -4.315556145718558, "lon": -64.00749098426253, "alt_km": 35772.085396540286, "timestamp": "2025-12-21T14:40:47.553104+00:00", "meta": {"OBJECT_NAME": "ELEKTRO-L 2", "OBJECT_ID": "2015-074A", "EPOCH": "2025-12-21T01:08:40.917984", "MEAN_MOTION": 1.00272505, "ECCENTRICITY": 0.00035096, "INCLINATION": 6.2453, "RA_OF_ASC_NODE": 72.7296, "ARG_OF_PERICENTER": 208.7626, "MEAN_ANOMALY": 171.0759, "EPHEMERIS_TYPE": 0, "CLASSIFICATION_TYPE": "U", "NORAD_CAT_ID": 41105, "ELEMENT_SET_NO": 999, "REV_AT_EPOCH": 3672, "BSTAR": 0, "MEAN_MOTION_DOT": -9.8e-07, "MEAN_MOTION_DDOT": 0}, "tle": {"line1": "1 41105U 15074A   25355.04769581 -.00000098  00000+0  00000+0 0  9994", "line2": "2 41105   6.2453  72.7296 0003509 208.7626 171.0759  1.00272505 36724"}}, "geometry": {"type": "Point", "coordinates": [-64.00749098426253, -4.315556145718558]}}, {"type": "Feature", "properties": {"norad_id": 41752, "name": "INSAT-3DR", "group": "weather", "lat": -0.08713347788762502, "lon": 24.757353544254194, "alt_km": 35809.60755007813, "timestamp": "2025-12-21T14:40:47.553117+00:00", "meta": {"OBJECT_NAME": "INSAT-3DR", "OBJECT_ID": "2016-054A", "EPOCH": "2025-12-20T23:51:13.480128", "MEAN_MOTION": 1.00271576, "ECCENTRICITY": 0.00141406, "INCLINATION": 0.1118, "RA_OF_ASC_NODE": 86.3316, "ARG_OF_PERICENTER": 185.3117, "MEAN_ANOMALY": 249.9717, "EPHEMERIS_TYPE": 0, "CLASSIFICATION_TYPE": "U", "NORAD_CAT_ID": 41752, "ELEMENT_SET_NO": 999, "REV_AT_EPOCH": 3403, "BSTAR": 0, "MEAN_MOTION_DOT": -5.4e-07, "MEAN_MOTION_DDOT": 0}, "tle": {"line1": "1 41752U 16054A   25354.99390602 -.00000054  00000+0  00000+0 0  9990", "line2": "2 41752   0.1118  86.3316 0014140 185.3117 249.9717  1.00271576 34033"}}, "geometry": {"type": "Point", "coordinates": [24.757353544254194, -0.08713347788762502]}}]}